[{"OBJECT_NAME":"HAWK-11C","OBJECT_ID":"2024-247E","EPOCH":"2026-03-09T12:17:35.407968","MEAN_MOTION":15.2884802,"ECCENTRICITY":0.00059001,"INCLINATION":45.0045,"RA_OF_ASC_NODE":114.8762,"ARG_OF_PERICENTER":329.704,"MEAN_ANOMALY":30.3502,"EPHEMERIS_TYPE":0,"CLASSIFICATION_TYPE":"U","NORAD_CAT_ID":62381,"ELEMENT_SET_NO":999,"REV_AT_EPOCH":6774,"BSTAR":0.00033290115,"MEAN_MOTION_DOT":9.223e-5,"MEAN_MOTION_DDOT":0},{"OBJECT_NAME":"STARLINK-36509","OBJECT_ID":"2026-005E","EPOCH":"2026-03-09T22:00:01.999584","MEAN_MOTION":15.27549973,"ECCENTRICITY":0.00010562,"INCLINATION":43.0014,"RA_OF_ASC_NODE":236.5508,"ARG_OF_PERICENTER":303.7669,"MEAN_ANOMALY":32.8883,"EPHEMERIS_TYPE":0,"CLASSIFICATION_TYPE":"U","NORAD_CAT_ID":67408,"ELEMENT_SET_NO":999,"REV_AT_EPOCH":584,"BSTAR":0.0026600564,"MEAN_MOTION_DOT":0.00073602,"MEAN_MOTION_DDOT":0}]
